[{"OBJECT_NAME":"STARLINK-4443","OBJECT_ID":"2022-099AV","EPOCH":"2026-03-09T21:15:02.117088","MEAN_MOTION":15.0564675,"ECCENTRICITY":4.33e-5,"INCLINATION":97.6042,"RA_OF_ASC_NODE":191.4361,"ARG_OF_PERICENTER":255.1395,"MEAN_ANOMALY":104.9784,"EPHEMERIS_TYPE":0,"CLASSIFICATION_TYPE":"U","NORAD_CAT_ID":53508,"ELEMENT_SET_NO":999,"REV_AT_EPOCH":19608,"BSTAR":6.6264518e-5,"MEAN_MOTION_DOT":8.95e-6,"MEAN_MOTION_DDOT":0},{"OBJECT_NAME":"DIAPASON (D1-A)","OBJECT_ID":"1966-013A","EPOCH":"2026-03-09T00:43:39.063072","MEAN_MOTION":12.66429063,"ECCENTRICITY":0.11576775,"INCLINATION":34.0899,"RA_OF_ASC_NODE":31.7007,"ARG_OF_PERICENTER":132.081,"MEAN_ANOMALY":238.4274,"EPHEMERIS_TYPE":0,"CLASSIFICATION_TYPE":"U","NORAD_CAT_ID":2016,"ELEMENT_SET_NO":999,"REV_AT_EPOCH":72774,"BSTAR":0.00029088113,"MEAN_MOTION_DOT":1.01e-5,"MEAN_MOTION_DDOT":0}]
